CCSDS_OMM_VERS = 2.0
CREATION_DATE  = 
ORIGINATOR     = 

OBJECT_NAME    = CYGNUS NG-23
OBJECT_ID      = 2025-208A
CENTER_NAME    = EARTH
REF_FRAME      = TEME
TIME_SYSTEM    = UTC
MEAN_ELEMENT_THEORY = SGP/SGP4

EPOCH          = 2025-12-23T04:21:36.091008
MEAN_MOTION    = 15.49746572
ECCENTRICITY   = .00031904
INCLINATION    = 51.6323
RA_OF_ASC_NODE = 90.7678
ARG_OF_PERICENTER = 289.6661
MEAN_ANOMALY   = 70.3984

EPHEMERIS_TYPE = 0
CLASSIFICATION_TYPE = U
NORAD_CAT_ID   = 65616
ELEMENT_SET_NO = 999
REV_AT_EPOCH   = 22
BSTAR          = .21350548E-3
MEAN_MOTION_DOT = .11641E-3
MEAN_MOTION_DDOT = 0

CCSDS_OMM_VERS = 2.0
CREATION_DATE  = 
ORIGINATOR     = 

OBJECT_NAME    = 1998-067XK
OBJECT_ID      = 1998-067XK
CENTER_NAME    = EARTH
REF_FRAME      = TEME
TIME_SYSTEM    = UTC
MEAN_ELEMENT_THEORY = SGP/SGP4

EPOCH          = 2025-12-23T06:12:26.032896
MEAN_MOTION    = 15.67713225
ECCENTRICITY   = .00049619
INCLINATION    = 51.6292
RA_OF_ASC_NODE = 83.7873
ARG_OF_PERICENTER = 312.0823
MEAN_ANOMALY   = 47.9751

EPHEMERIS_TYPE = 0
CLASSIFICATION_TYPE = U
NORAD_CAT_ID   = 65731
ELEMENT_SET_NO = 999
REV_AT_EPOCH   = 1479
BSTAR          = .91991075E-3
MEAN_MOTION_DOT = .103596E-2
MEAN_MOTION_DDOT = 0

CCSDS_OMM_VERS = 2.0
CREATION_DATE  = 
ORIGINATOR     = 

OBJECT_NAME    = YOTSUBA-KULOVER
OBJECT_ID      = 1998-067XN
CENTER_NAME    = EARTH
REF_FRAME      = TEME
TIME_SYSTEM    = UTC
MEAN_ELEMENT_THEORY = SGP/SGP4

EPOCH          = 2025-12-23T06:45:22.876128
MEAN_MOTION    = 15.60829140
ECCENTRICITY   = .00022338
INCLINATION    = 51.6291
RA_OF_ASC_NODE = 86.9403
ARG_OF_PERICENTER = 346.8625
MEAN_ANOMALY   = 13.2310

EPHEMERIS_TYPE = 0
CLASSIFICATION_TYPE = U
NORAD_CAT_ID   = 65941
ELEMENT_SET_NO = 999
REV_AT_EPOCH   = 1150
BSTAR          = .82116057E-3
MEAN_MOTION_DOT = .69963E-3
MEAN_MOTION_DDOT = 0

CCSDS_OMM_VERS = 2.0
CREATION_DATE  = 
ORIGINATOR     = 

OBJECT_NAME    = BOTAN
OBJECT_ID      = 1998-067XP
CENTER_NAME    = EARTH
REF_FRAME      = TEME
TIME_SYSTEM    = UTC
MEAN_ELEMENT_THEORY = SGP/SGP4

EPOCH          = 2025-12-23T06:16:22.684224
MEAN_MOTION    = 15.65035738
ECCENTRICITY   = .00032278
INCLINATION    = 51.6284
RA_OF_ASC_NODE = 86.0542
ARG_OF_PERICENTER = 325.6529
MEAN_ANOMALY   = 34.4257

EPHEMERIS_TYPE = 0
CLASSIFICATION_TYPE = U
NORAD_CAT_ID   = 65942
ELEMENT_SET_NO = 999
REV_AT_EPOCH   = 1151
BSTAR          = .11276843E-2
MEAN_MOTION_DOT = .1142E-2
MEAN_MOTION_DDOT = 0

CCSDS_OMM_VERS = 2.0
CREATION_DATE  = 
ORIGINATOR     = 

OBJECT_NAME    = E-KAGAKU-1
OBJECT_ID      = 1998-067XQ
CENTER_NAME    = EARTH
REF_FRAME      = TEME
TIME_SYSTEM    = UTC
MEAN_ELEMENT_THEORY = SGP/SGP4

EPOCH          = 2025-12-22T10:46:55.533504
MEAN_MOTION    = 15.60710313
ECCENTRICITY   = .00012968
INCLINATION    = 51.6319
RA_OF_ASC_NODE = 91.1385
ARG_OF_PERICENTER = 295.9007
MEAN_ANOMALY   = 64.1852

EPHEMERIS_TYPE = 0
CLASSIFICATION_TYPE = U
NORAD_CAT_ID   = 65943
ELEMENT_SET_NO = 999
REV_AT_EPOCH   = 1137
BSTAR          = .86344374E-3
MEAN_MOTION_DOT = .73283E-3
MEAN_MOTION_DDOT = 0

CCSDS_OMM_VERS = 2.0
CREATION_DATE  = 
ORIGINATOR     = 

OBJECT_NAME    = HTV-X1
OBJECT_ID      = 2025-241A
CENTER_NAME    = EARTH
REF_FRAME      = TEME
TIME_SYSTEM    = UTC
MEAN_ELEMENT_THEORY = SGP/SGP4

EPOCH          = 2025-12-23T04:21:36.091008
MEAN_MOTION    = 15.49746572
ECCENTRICITY   = .00031904
INCLINATION    = 51.6323
RA_OF_ASC_NODE = 90.7678
ARG_OF_PERICENTER = 289.6661
MEAN_ANOMALY   = 70.3984

EPHEMERIS_TYPE = 0
CLASSIFICATION_TYPE = U
NORAD_CAT_ID   = 66174
ELEMENT_SET_NO = 999
REV_AT_EPOCH   = 51
BSTAR          = .21350548E-3
MEAN_MOTION_DOT = .11641E-3
MEAN_MOTION_DDOT = 0

CCSDS_OMM_VERS = 2.0
CREATION_DATE  = 
ORIGINATOR     = 

OBJECT_NAME    = SZ-21 MODULE
OBJECT_ID      = 2025-246C
CENTER_NAME    = EARTH
REF_FRAME      = TEME
TIME_SYSTEM    = UTC
MEAN_ELEMENT_THEORY = SGP/SGP4

EPOCH          = 2025-12-23T05:04:42.753216
MEAN_MOTION    = 15.63016962
ECCENTRICITY   = .00050368
INCLINATION    = 41.4769
RA_OF_ASC_NODE = 312.1416
ARG_OF_PERICENTER = 316.3209
MEAN_ANOMALY   = 43.7232

EPHEMERIS_TYPE = 0
CLASSIFICATION_TYPE = U
NORAD_CAT_ID   = 66515
ELEMENT_SET_NO = 999
REV_AT_EPOCH   = 608
BSTAR          = .30579963E-3
MEAN_MOTION_DOT = .28357E-3
MEAN_MOTION_DDOT = 0

CCSDS_OMM_VERS = 2.0
CREATION_DATE  = 
ORIGINATOR     = 

OBJECT_NAME    = SHENZHOU-22
OBJECT_ID      = 2025-272A
CENTER_NAME    = EARTH
REF_FRAME      = TEME
TIME_SYSTEM    = UTC
MEAN_ELEMENT_THEORY = SGP/SGP4

EPOCH          = 2025-12-23T06:45:56.635200
MEAN_MOTION    = 15.59596422
ECCENTRICITY   = .0007971
INCLINATION    = 41.4686
RA_OF_ASC_NODE = 312.6856
ARG_OF_PERICENTER = 124.3462
MEAN_ANOMALY   = 235.8132

EPHEMERIS_TYPE = 0
CLASSIFICATION_TYPE = U
NORAD_CAT_ID   = 66645
ELEMENT_SET_NO = 999
REV_AT_EPOCH   = 26550
BSTAR          = .22671035E-3
MEAN_MOTION_DOT = .18298E-3
MEAN_MOTION_DDOT = 0

